SL-14 R/B               
1 20262U 89080C   25290.65355154  .00000249  00000+0  67277-4 0  9996
2 20262  82.5884 265.0201 1231195 151.6778 215.7280 12.50362470642278
DELTA 1 R/B             
1 20323U 89089B   25290.48847450  .00000495  00000+0  13167-3 0  9990
2 20323  97.0822 155.6245 0068236 214.1534 145.5265 14.50503391874977
ARIANE 40 R/B           
1 20443U 90005H   25290.79486884  .00000448  00000+0  15660-3 0  9995
2 20443  98.3324 350.5327 0008904 274.9773  85.0399 14.39734032872242
DELTA 2 R/B(1)          
1 20453U 90008B   25290.31641066  .00037752  00000+0  70060-3 0  9995
2 20453  35.6068  23.4767 0120398  24.7488 335.8958 15.40251707903914
COSMOS 2058             
1 20465U 90010A   25290.70161878  .00005540  00000+0  34017-3 0  9994
2 20465  82.4737 188.1325 0010794  99.3742 260.8708 15.09865080920658
SL-14 R/B               
1 20466U 90010B   25290.82711476  .00000803  00000+0  94619-4 0  9995
2 20466  82.5046  41.5424 0021057  53.4094 306.9054 14.83392916907307
SL-14 R/B               
1 20511U 90018B   25290.43740032  .00000651  00000+0  79056-4 0  9990
2 20511  82.5244 356.9871 0015956 198.6160 161.4473 14.81970062901365
HST                     
1 20580U 90037B   25290.34289617  .00010313  00000+0  37027-3 0  9991
2 20580  28.4690 296.0463 0001864 333.8526  26.1974 15.26961582751361
SL-16 R/B               
1 20625U 90046B   25290.61578257  .00000288  00000+0  17319-3 0  9994
2 20625  70.9981 238.3828 0013812 170.6543 189.4839 14.14983811828152
COSMOS 2084             
1 20663U 90055A   25290.81331522  .00005563  00000+0  40247-3 0  9997
2 20663  62.7885 102.4798 0041360 168.1268 192.0817 15.04470983914814
SL-6 R/B(2)             
1 20666U 90055D   25290.67648252  .00003645  00000+0  28618-3 0  9992
2 20666  62.7856  19.8487 0011020 255.8997 104.0877 15.02666052916693
SL-8 R/B                
1 20775U 90078B   25290.51435980  .00033129  00000+0  10358-2 0  9994
2 20775  82.9098  19.4946 0385255 133.5453 229.8458 14.83132508788033
SL-8 R/B                
1 21088U 91006B   25290.69756204  .00000217  00000+0  20240-3 0  9992
2 21088  82.9381 276.4086 0023939  76.6263  96.7003 13.77475905744380
OKEAN-3                 
1 21397U 91039A   25290.79001126  .00005939  00000+0  43187-3 0  9999
2 21397  82.5135 115.1808 0015885  95.6486 264.6552 15.03559876843551
COSMOS 2151             
1 21422U 91042A   25290.83769106  .00003526  00000+0  28575-3 0  9990
2 21422  82.4984 221.3505 0012490 173.6186 186.5200 14.99373617841784
SL-14 R/B               
1 21423U 91042B   25290.59571545  .00000572  00000+0  69676-4 0  9998
2 21423  82.4958 354.3718 0016874 356.7218   3.3882 14.81666105831889
ERS-1                   
1 21574U 91050A   25290.77605122  .00000491  00000+0  17218-3 0  9997
2 21574  98.7942 300.4201 0030913 266.1425  93.6227 14.39300423795179
ARIANE 40 R/B           
1 21610U 91050F   25290.61200784  .00000515  00000+0  16713-3 0  9992
2 21610  98.2252 343.0453 0004023 133.7931 226.3592 14.42742317798365
INTERCOSMOS 25          
1 21819U 91086A   25290.82051073  .00001951  00000+0  37655-3 0  9993
2 21819  82.6087  36.3583 1489134  64.8660 309.9323 12.11510204479389
SL-8 R/B                
1 21876U 92008B   25290.70521053  .00000081  00000+0  67261-4 0  9998
2 21876  82.9314  14.1160 0035026 171.8625 342.1412 13.75943647689753
SL-8 R/B                
1 21938U 92020B   25290.70789271  .00000004  00000+0 -10992-4 0  9994
2 21938  82.9267 259.9294 0028588 339.8028 193.6792 13.75518299681476
USA 81                  
1 21949U 92023A   25290.86622597  .00000316  00000+0  10962-3 0  9994
2 21949  85.0111 213.7874 0002630  99.4002 260.7488 14.32295841 74342
COSMOS 2219             
1 22219U 92076A   25290.76971257  .00000150  00000+0  10357-3 0  9996
2 22219  71.0592 316.8323 0016215  55.0296 305.2346 14.14046598698176
SL-16 R/B               
1 22220U 92076B   25290.87878079  .00000113  00000+0  80371-4 0  9991
2 22220  70.9983 129.1996 0014650 306.8764 149.6738 14.16829052701603
COSMOS 2221             
1 22236U 92080A   25290.81856512  .00003803  00000+0  34150-3 0  9997
2 22236  82.5046  55.8228 0013580 316.4384  43.5764 14.95414636759438
SL-16 R/B               
1 22285U 92093B   25290.77235667  .00000027  00000+0  38077-4 0  9990
2 22285  71.0213 304.2826 0004256 198.9675 161.1290 14.15420060692934
COSMOS 2228             
1 22286U 92094A   25290.79333257  .00003703  00000+0  32378-3 0  9999
2 22286  82.5219  14.0438 0019449  65.4429 294.8817 14.96359342754681
SL-16 R/B               
1 22566U 93016B   25290.86924528  .00000279  00000+0  16755-3 0  9996
2 22566  71.0068 155.1446 0010504 192.8418 167.2439 14.15276825681967
COSMOS 2242             
1 22626U 93024A   25290.58231926  .00003604  00000+0  32016-3 0  9997
2 22626  82.5208  43.4918 0017748  68.6384 291.6729 14.95753067758997
SL-16 R/B               
1 22803U 93059B   25290.76028595  .00000071  00000+0  59068-4 0  9990
2 22803  70.9897 312.5326 0014991  64.5197 295.7475 14.17196782659280
ARIANE 40 R/B           
1 22830U 93061H   25290.82029725  .00000366  00000+0  15021-3 0  9993
2 22830  98.5145 357.3499 0010405 353.7569   6.3483 14.32740247673641
COSMOS 2278             
1 23087U 94023A   25290.87487796 -.00000111  00000+0 -33375-4 0  9991
2 23087  71.0511 113.8851 0011146 252.9401 107.0501 14.14332906624616
SL-16 R/B               
1 23088U 94023B   25290.63340514  .00000147  00000+0  10069-3 0  9993
2 23088  71.0018  11.3120 0003152 194.3905 165.7128 14.14982576625853
SL-16 R/B               
1 23343U 94074B   25290.80679822  .00000740  00000+0  10639-3 0  9991
2 23343  97.7283 322.3123 0005935 339.2038 111.3636 14.79193388666124
SL-16 R/B               
1 23405U 94077B   25290.74146612  .00000030  00000+0  40011-4 0  9992
2 23405  70.9818 293.2192 0002919 328.9536  31.1413 14.15540943596003
ARIANE 40+ R/B          
1 23561U 95021B   25290.43119573  .00000485  00000+0  16919-3 0  9990
2 23561  98.4718 358.6832 0006338 201.6486 169.4026 14.39629728598638
SL-16 R/B               
1 23705U 95058B   25290.88268455 -.00000211  00000+0 -83793-4 0  9997
2 23705  71.0184 120.0733 0013741 328.2736  31.7557 14.15467901547645
SL-16 R/B               
1 24298U 96051B   25290.82233008 -.00000091  00000+0 -22453-4 0  9991
2 24298  70.7575 117.6374 0016294 334.5652  25.4664 14.12393375501479
ORBVIEW 2 (SEASTAR)     
1 24883U 97037A   25290.66144113  .00000526  00000+0  19976-3 0  9992
2 24883  98.8428  86.3374 0003122 112.9716 247.1798 14.35351695487955
SL-16 R/B               
1 25400U 98043G   25290.80665157  .00000136  00000+0  75988-4 0  9991
2 25400  98.8019 238.3404 0010910  70.8566 289.3793 14.26004207418623
SL-16 R/B               
1 25407U 98045B   25290.82242168 -.00000171  00000+0 -62097-4 0  9993
2 25407  71.0084 122.0168 0009637 249.9881 110.0205 14.16161525406872
ISS (ZARYA)             
1 25544U 98067A   25290.81522666  .00015612  00000+0  28896-3 0  9994
2 25544  51.6335  59.3412 0004322 304.2349  55.8229 15.49195004534185
CZ-4B R/B               
1 25732U 99025C   25290.61127154  .00000120  00000+0  78911-4 0  9991
2 25732  98.6860 333.1210 0037772  37.8544 124.6695 14.18223006367880
OKEAN-O                 
1 25860U 99039A   25290.61020679  .00001091  00000+0  15107-3 0  9997
2 25860  97.9690 346.7767 0001937  88.2134 271.9300 14.80019735413221
SL-16 R/B               
1 25861U 99039B   25290.11935019  .00001056  00000+0  14148-3 0  9991
2 25861  98.0215 344.2437 0014995   8.7434 351.4037 14.81466893415609
DELTA 2 R/B             
1 25876U 99041E   25290.62557823  .00001045  00000+0  20668-3 0  9991
2 25876  51.7640 152.3937 0504456 286.3371  68.2673 14.11216104342829
HELIOS 1B               
1 25977U 99064A   25290.41825183  .00002380  00000+0  27260-3 0  9990
2 25977  98.1766 183.4257 0001962 118.9754 241.1658 14.86939332663967
TERRA                   
1 25994U 99068A   25290.84448051  .00000748  00000+0  16217-3 0  9991
2 25994  97.9836 344.5546 0000915 281.1467 138.3360 14.60855793374228
SL-16 R/B               
1 26070U 00006B   25290.73019745 -.00000219  00000+0 -87204-4 0  9993
2 26070  71.0041  38.4220 0015243  31.8582 328.3460 14.15794373328329
TITAN 4B R/B            
1 26474U 00047B   25290.84702757  .00007711  00000+0  49491-3 0  9997
2 26474  67.9886  81.7549 0044934 207.7338 152.1415 15.08120189371361
ENVISAT                 
1 27386U 02009A   25290.85523814  .00000224  00000+0  86514-4 0  9996
2 27386  98.3499 243.0408 0001332  88.1201 301.7446 14.38967759238636
IDEFIX & ARIANE 42P R/B 
1 27422U 02021B   25290.85289139  .00000497  00000+0  20594-3 0  9997
2 27422  98.5693 226.2966 0010678 246.8927 113.1131 14.30888621223595
AQUA                    
1 27424U 02022A   25290.89240683  .00001746  00000+0  36114-3 0  9998
2 27424  98.3944 250.8983 0001747  59.7792 322.5016 14.61606142247879
CZ-4B R/B               
1 27432U 02024C   25290.64354170  .00000086  00000+0  66963-4 0  9991
2 27432  98.9092 339.5863 0051139  69.7055  92.9137 14.14511088209011
MIDORI II (ADEOS-II)    
1 27597U 02056A   25290.84737125  .00000490  00000+0  21098-3 0  9993
2 27597  98.7534 243.5393 0002102  69.5451 290.5956 14.29147009189890
H-2A R/B                
1 27601U 02056E   25290.84689226  .00000488  00000+0  18634-3 0  9996
2 27601  98.2970 251.8564 0069341 226.7157 195.7412 14.33617104193649
CZ-4B R/B               
1 28059U 03049C   25290.81915779  .00000823  00000+0  20092-3 0  9993
2 28059  98.6745 275.2827 0047402 308.7539  50.9425 14.54826943165823
CZ-2C R/B               
1 28222U 04012C   25290.55433823  .00040806  00000+0  70392-3 0  9995
2 28222  97.7529 338.7266 0021460 114.5003 245.8488 15.50660486182000
SL-16 R/B               
1 28353U 04021B   25290.82844686 -.00000102  00000+0 -28532-4 0  9990
2 28353  71.0008 172.2951 0007519 262.0935  97.9334 14.14574920102639
